NORAD_CAT_ID,OBJECT_NAME,OBJECT_TYPE,EPOCH,MEAN_MOTION,ECCENTRICITY,INCLINATION,RA_OF_ASC_NODE,ARG_OF_PERICENTER,MEAN_ANOMALY,BSTAR,MEAN_MOTION_DOT,MEAN_MOTION_DDOT,TLE_LINE0,TLE_LINE1,TLE_LINE2,SEMIMAJOR_AXIS,PERIOD,APOGEE,PERIGEE,DECAYED
51999.0,STARLINK-3667,PAYLOAD,2024-03-28 08:55:19,15.08854292,0.000142,53.2192,332.3426,102.3657,257.7494,0.00028251,4.213e-05,0.0,0 STARLINK-3667,1 51999U 22025AV  24088.37175247  .00004213  00000-0  28251-3 0  9993,2 51999  53.2192 332.3426 0001420 102.3657 257.7494 15.08854292115044,6917.837,95.437,540.684,538.719,0.0
51999.0,STARLINK-3667,PAYLOAD,2024-03-28 23:13:48,15.08832679,0.0001222,53.2173,329.6659,92.8226,267.2906,-0.00018065,-3.161e-05,0.0,0 STARLINK-3667,1 51999U 22025AV  24088.96792046 -.00003161  00000-0 -18065-3 0  9995,2 51999  53.2173 329.6659 0001222  92.8226 267.2906 15.08832679113626,6917.903,95.438,540.613,538.922,0.0
51999.0,STARLINK-3667,PAYLOAD,2024-03-29 23:04:35,15.08845921,0.0001237,53.2175,325.2047,88.7151,271.3983,0.00031937,4.799e-05,0.0,0 STARLINK-3667,1 51999U 22025AV  24089.96152056  .00004799  00000-0  31937-3 0  9996,2 51999  53.2175 325.2047 0001237  88.7151 271.3983 15.08845921113779,6917.862,95.437,540.583,538.872,0.0
51999.0,STARLINK-3667,PAYLOAD,2024-03-30 00:39:58,15.08847939,0.0001237,53.2175,324.9077,93.8423,266.2711,0.00054927,8.466e-05,0.0,0 STARLINK-3667,1 51999U 22025AV  24090.02776068  .00008466  00000-0  54927-3 0  9999,2 51999  53.2175 324.9077 0001237  93.8423 266.2711 15.08847939115299,6917.856,95.437,540.577,538.865,0.0
51999.0,STARLINK-3667,PAYLOAD,2024-03-30 08:36:53,15.08857951,0.0001191,53.2167,323.4204,77.3993,282.7132,0.00070935,0.00011025,0.0,0 STARLINK-3667,1 51999U 22025AV  24090.35895767  .00011025  00000-0  70935-3 0  9995,2 51999  53.2167 323.4204 0001191  77.3993 282.7132 15.08857951113837,6917.826,95.436,540.514,538.867,0.0
51999.0,STARLINK-3667,PAYLOAD,2024-03-30 21:19:59,15.0883586,0.00013,53.2165,321.0431,88.8294,271.2847,6.1769e-05,6.95e-06,0.0,0 STARLINK-3667,1 51999U 22025AV  24090.88888338  .00000695  00000-0  61769-4 0  9996,2 51999  53.2165 321.0431 0001300  88.8294 271.2847 15.08835860115422,6917.893,95.438,540.657,538.859,0.0
51999.0,STARLINK-3667,PAYLOAD,2024-03-30 22:55:22,15.08836931,0.0001341,53.2168,320.7457,86.8699,273.2446,0.00017292,2.465e-05,0.0,0 STARLINK-3667,1 51999U 22025AV  24090.95512380  .00002465  00000-0  17292-3 0  9993,2 51999  53.2168 320.7457 0001341  86.8699 273.2446 15.08836931113921,6917.89,95.438,540.682,538.827,0.0
51999.0,STARLINK-3667,PAYLOAD,2024-03-31 08:27:41,15.08851906,0.0001329,53.2166,318.9616,85.7893,274.3251,0.0011379,0.00017874,0.0,0 STARLINK-3667,1 51999U 22025AV  24091.35256367  .00017874  00000-0  11379-2 0  9997,2 51999  53.2166 318.9616 0001329  85.7893 274.3251 15.08851906115494,6917.844,95.437,540.628,538.79,0.0
51999.0,STARLINK-3667,PAYLOAD,2024-03-31 14:49:14,15.08846791,0.0001435,53.2165,317.7732,84.1201,275.9954,0.0008193,0.00012778,0.0,0 STARLINK-3667,1 51999U 22025AV  24091.61752447  .00012778  00000-0  81930-3 0  9995,2 51999  53.2165 317.7732 0001435  84.1201 275.9954 15.08846791114024,6917.86,95.437,540.717,538.732,0.0
51999.0,STARLINK-3667,PAYLOAD,2024-03-31 21:10:46,15.08846541,0.0001372,53.2164,316.5831,86.0079,274.107,0.0006,9.276e-05,0.0,0 STARLINK-3667,1 51999U 22025AV  24091.88248426  .00009276  00000-0  60000-3 0  9995,2 51999  53.2164 316.5831 0001372  86.0079 274.1070 15.08846541115578,6917.86,95.437,540.675,538.776,0.0
51999.0,STARLINK-3667,PAYLOAD,2024-04-01 14:40:00,15.08864413,0.0002956,53.2171,313.3114,78.0303,282.102,0.00098349,0.0001541,0.0,0 STARLINK-3667,1 51999U 22025AV  24092.61112232  .00015410  00000-0  98349-3 0  9996,2 51999  53.2171 313.3114 0002956  78.0303 282.1020 15.08864413114172,6917.806,95.436,541.716,537.626,0.0
51999.0,STARLINK-3667,PAYLOAD,2024-04-01 21:01:33,15.08843161,0.0001293,53.217,312.1222,76.4847,283.6289,0.00014154,1.966e-05,0.0,0 STARLINK-3667,1 51999U 22025AV  24092.87608068  .00001966  00000-0  14154-3 0  9994,2 51999  53.2170 312.1222 0001293  76.4847 283.6289 15.08843161115728,6917.871,95.437,540.63,538.841,0.0
51999.0,STARLINK-3667,PAYLOAD,2024-04-02 08:09:13,15.08919063,8.73e-05,53.2172,310.0394,77.5549,282.5541,0.0022953,0.0003651,0.0,0 STARLINK-3667,1 51999U 22025AV  24093.33973438  .00036510  00000-0  22953-2 0  9990,2 51999  53.2172 310.0394 0000873  77.5549 282.5541 15.08919063115792,6917.639,95.433,540.108,538.9,0.0
51999.0,STARLINK-3667,PAYLOAD,2024-04-02 19:16:55,15.08840831,0.0001157,53.2172,307.9572,98.8955,261.2168,-0.00040921,-6.795e-05,0.0,0 STARLINK-3667,1 51999U 22025AV  24093.80342558 -.00006795  00000-0 -40921-3 0  9995,2 51999  53.2172 307.9572 0001157  98.8955 261.2168 15.08840831115861,6917.878,95.438,540.543,538.942,0.0
51999.0,STARLINK-3667,PAYLOAD,2024-04-03 20:43:07,15.08822432,9.85e-05,53.2159,303.201,84.0648,276.0457,0.00015444,2.17e-05,0.0,0 STARLINK-3667,1 51999U 22025AV  24094.86328279  .00002170  00000-0  15444-3 0  9999,2 51999  53.2159 303.2010 0000985  84.0648 276.0457 15.08822432116027,6917.934,95.439,540.481,539.118,0.0
51999.0,STARLINK-3667,PAYLOAD,2024-04-04 06:15:26,15.0883345,0.000119,53.2162,301.4159,87.7762,272.3367,0.00029244,4.369e-05,0.0,0 STARLINK-3667,1 51999U 22025AV  24095.26072375  .00004369  00000-0  29244-3 0  9992,2 51999  53.2162 301.4159 0001190  87.7762 272.3367 15.08833450114570,6917.9,95.438,540.589,538.942,0.0
51999.0,STARLINK-3667,PAYLOAD,2024-04-04 18:58:32,15.08835585,0.0001347,53.2176,299.0402,96.3377,263.7768,0.00051671,7.944e-05,0.0,0 STARLINK-3667,1 51999U 22025AV  24095.79065112  .00007944  00000-0  51671-3 0  9992,2 51999  53.2176 299.0402 0001347  96.3377 263.7768 15.08835585114659,6917.894,95.438,540.691,538.827,0.0
51999.0,STARLINK-3667,PAYLOAD,2024-04-05 20:24:42,15.08847551,0.0001312,53.2168,294.2803,93.617,266.4972,0.00037366,5.665e-05,0.0,0 STARLINK-3667,1 51999U 22025AV  24096.85048833  .00005665  00000-0  37366-3 0  9994,2 51999  53.2168 294.2803 0001312  93.6170 266.4972 15.08847551116324,6917.857,95.437,540.63,538.815,0.0
51999.0,STARLINK-3667,PAYLOAD,2024-04-06 12:18:33,15.08848057,0.0001592,53.2181,291.3097,102.354,257.7631,0.00022432,3.285e-05,0.0,0 STARLINK-3667,1 51999U 22025AV  24097.51288607  .00003285  00000-0  22432-3 0  9997,2 51999  53.2181 291.3097 0001592 102.3540 257.7631 15.08848057114911,6917.856,95.437,540.822,538.619,0.0
51999.0,STARLINK-3667,PAYLOAD,2024-04-07 12:09:20,15.08837291,0.0001478,53.2169,286.8468,90.8753,269.2409,5.0705e-05,5.19e-06,0.0,0 STARLINK-3667,1 51999U 22025AV  24098.50649094  .00000519  00000-0  50705-4 0  9990,2 51999  53.2169 286.8468 0001478  90.8753 269.2409 15.08837291116571,6917.889,95.438,540.776,538.731,0.0
51999.0,STARLINK-3667,PAYLOAD,2024-04-07 18:30:53,15.08836887,0.0001543,53.2175,285.657,91.2394,268.8775,0.00019718,2.851e-05,0.0,0 STARLINK-3667,1 51999U 22025AV  24098.77145274  .00002851  00000-0  19718-3 0  9999,2 51999  53.2175 285.6570 0001543  91.2394 268.8775 15.08836887115107,6917.89,95.438,540.822,538.687,0.0
51999.0,STARLINK-3667,PAYLOAD,2024-04-08 12:00:07,15.08841229,0.000162,53.2143,282.3836,88.9154,271.2023,0.00016593,2.354e-05,0.0,0 STARLINK-3667,1 51999U 22025AV  24099.50009197  .00002354  00000-0  16593-3 0  9990,2 51999  53.2143 282.3836 0001620  88.9154 271.2023 15.08841229115216,6917.877,95.437,540.862,538.621,0.0
51999.0,STARLINK-3667,PAYLOAD,2024-04-08 18:21:40,15.08841458,0.0001637,53.2146,281.1941,88.8704,271.2475,0.0001568,2.208e-05,0.0,0 STARLINK-3667,1 51999U 22025AV  24099.76505240  .00002208  00000-0  15680-3 0  9992,2 51999  53.2146 281.1941 0001637  88.8704 271.2475 15.08841458116767,6917.876,95.437,540.873,538.608,0.0
51999.0,STARLINK-3667,PAYLOAD,2024-04-08 21:32:26,15.088406,0.0001575,53.2158,280.6003,86.7356,273.3816,0.00012904,1.766e-05,0.0,0 STARLINK-3667,1 51999U 22025AV  24099.89753310  .00001766  00000-0  12904-3 0  9993,2 51999  53.2158 280.6003 0001575  86.7356 273.3816 15.08840600115279,6917.879,95.438,540.833,538.654,0.0
51999.0,STARLINK-3667,PAYLOAD,2024-04-09 11:50:55,15.08842064,0.0001736,53.215,277.9227,96.2362,263.8827,0.00011819,1.594e-05,0.0,0 STARLINK-3667,1 51999U 22025AV  24100.49369247  .00001594  00000-0  11819-3 0  9997,2 51999  53.2150 277.9227 0001736  96.2362 263.8827 15.08842064115362,6917.874,95.437,540.94,538.538,0.0
51999.0,STARLINK-3667,PAYLOAD,2024-04-09 21:23:14,15.08838388,0.0001614,53.218,276.1397,93.2906,266.8271,3.6764e-05,2.97e-06,0.0,0 STARLINK-3667,1 51999U 22025AV  24100.89113526  .00000297  00000-0  36764-4 0  9994,2 51999  53.2180 276.1397 0001614  93.2906 266.8271 15.08838388115427,6917.885,95.438,540.867,538.634,0.0
51999.0,STARLINK-3667,PAYLOAD,2024-04-10 11:41:42,15.0884033,0.0001475,53.2154,273.4631,90.0693,270.0469,0.00011474,1.539e-05,0.0,0 STARLINK-3667,1 51999U 22025AV  24101.48729489  .00001539  00000-0  11474-3 0  9991,2 51999  53.2154 273.4631 0001475  90.0693 270.0469 15.08840330115518,6917.879,95.438,540.765,538.724,0.0
51999.0,STARLINK-3667,PAYLOAD,2024-04-11 11:32:29,15.08838985,0.0001473,53.2164,269.0023,93.1589,266.9571,0.00015257,2.141e-05,0.0,0 STARLINK-3667,1 51999U 22025AV  24102.48089650  .00002141  00000-0  15257-3 0  9994,2 51999  53.2164 269.0023 0001473  93.1589 266.9571 15.08838985117176,6917.883,95.438,540.767,538.729,0.0
51999.0,STARLINK-3667,PAYLOAD,2024-04-11 14:43:14,15.08860359,0.0001542,53.2162,268.4058,89.651,270.4659,-0.00062465,-0.00010221,0.0,0 STARLINK-3667,1 51999U 22025AV  24102.61336302 -.00010221  00000-0 -62465-3 0  9991,2 51999  53.2162 268.4058 0001542  89.6510 270.4659 15.08860359115687,6917.818,95.436,540.75,538.616,0.0
51999.0,STARLINK-3667,PAYLOAD,2024-04-11 17:54:02,15.08836561,0.0001197,53.2155,267.8121,87.5049,272.608,0.00017499,2.498e-05,0.0,0 STARLINK-3667,1 51999U 22025AV  24102.74585857  .00002498  00000-0  17499-3 0  9998,2 51999  53.2155 267.8121 0001197  87.5049 272.6080 15.08836561115706,6917.891,95.438,540.584,538.928,0.0
